0 ARIANE 5 R/B
1 39235U 13044C   13283.66532082  .00001594  00000-0  58216-3 0   381
2 39235 003.8281 091.3659 7278614 216.5469 059.6993 02.27744221   942
0 ARIANE 5 R/B
1 39235U 13044C   13283.66576562  .00000804  00000-0  41453-3 0   379
2 39235 003.8200 091.5449 7276596 216.3850 060.0615 02.27743201   956
0 ARIANE 5 R/B
1 39235U 13044C   13284.98071046  .00001080  00000-0  50978-3 0   382
2 39235 003.8216 091.0178 7276370 217.4484 058.1646 02.27747725   982
0 ARIANE 5 R/B
1 39235U 13044C   13286.29567841  .00001310  00000-0  57034-3 0   398
2 39235 003.8241 090.4920 7275976 218.5126 056.3103 02.27752442  1019
0 ARIANE 5 R/B
1 39235U 13044C   13289.36436614  .00001471  00000-0  56413-3 0   402
2 39235 003.8339 089.3980 7275316 220.8282 052.4040 02.27765718  1070
0 ARIANE 5 R/B
1 39235U 13044C   13289.80271172  .00001785  00000-0  71588-3 0   416
2 39235 003.8316 089.1661 7274604 221.2774 051.8314 02.27765266  1085
0 ARIANE 5 R/B
1 39235U 13044C   13291.99434662  .00001390  00000-0  58388-3 0   420
2 39235 003.8364 088.3273 7274289 223.0120 048.8784 02.27770063  1136
0 ARIANE 5 R/B
1 39235U 13044C   13292.87118068  .00001435  00000-0  61449-3 0   430
2 39235 003.8400 088.0049 7274956 223.6836 047.8646 02.27773544  1151
0 ARIANE 5 R/B
1 39235U 13044C   13294.62484862  .00001362  00000-0  65098-3 0   447
2 39235 003.8440 087.3281 7274831 225.0727 045.8598 02.27779405  1192
0 ARIANE 5 R/B
1 39235U 13044C   13295.50172544  .00001158  00000-0  58878-3 0   458
2 39235 003.8466 086.9904 7274930 225.7637 044.8998 02.27781139  1217
